start=new Date('2022-06-27T00:00:00.000Z').valueOf();
sats=[{"EPHEMERIS_TYPE":"0","CENTER_NAME":"EARTH","OBJECT_ID":"2021-021BD","MEAN_MOTION_DDOT":"0.0000000000000","ELEMENT_SET_NO":"999","COUNTRY_CODE":"US","TLE_LINE2":"2 47911  53.0546 235.3336 0001624  70.3001 289.8163 15.06404497 72079","FILE":"3503441","REF_FRAME":"TEME","LAUNCH_DATE":"2021-03-14","RCS_SIZE":"LARGE","OBJECT_TYPE":"PAYLOAD","PERIOD":"95.592","MEAN_ANOMALY":"289.8163","SEMIMAJOR_AXIS":"6925.335","REV_AT_EPOCH":"7207","RA_OF_ASC_NODE":"235.3336","BSTAR":"0.00009674100000","INCLINATION":"53.0546","OBJECT_NAME":"STARLINK-2371","EPOCH":"2022-06-26T21:19:33.782016","MEAN_MOTION":"15.06404497","ECCENTRICITY":"0.00016240","TIME_SYSTEM":"UTC","APOAPSIS":"548.324","DECAY_DATE":null,"NORAD_CAT_ID":"47911","PERIAPSIS":"546.075","SITE":"AFETR","ARG_OF_PERICENTER":"70.3001","TLE_LINE1":"1 47911U 21021BD  22177.88858544  .00001160  00000-0  96741-4 0  9996","MEAN_ELEMENT_THEORY":"SGP4","CLASSIFICATION_TYPE":"U","GP_ID":"206925421","MEAN_MOTION_DOT":"0.00001160"},{"OBJECT_NAME":"STARLINK-2372","EPOCH":"2022-06-26T09:36:51.799392","MEAN_MOTION":"15.06408182","ECCENTRICITY":"0.00016140","APOAPSIS":"548.306","TIME_SYSTEM":"UTC","SITE":"AFETR","PERIAPSIS":"546.071","ARG_OF_PERICENTER":"60.9579","TLE_LINE1":"1 47912U 21021BE  22177.40059953  .00002879  00000-0  21203-3 0  9990","DECAY_DATE":null,"NORAD_CAT_ID":"47912","CLASSIFICATION_TYPE":"U","MEAN_ELEMENT_THEORY":"SGP4","GP_ID":"206898774","MEAN_MOTION_DOT":"0.00002879","OBJECT_ID":"2021-021BE","CENTER_NAME":"EARTH","EPHEMERIS_TYPE":"0","MEAN_MOTION_DDOT":"0.0000000000000","ELEMENT_SET_NO":"999","COUNTRY_CODE":"US","TLE_LINE2":"2 47912  53.0548 222.2747 0001614  60.9579 299.1571 15.06408182 71887","FILE":"3503204","LAUNCH_DATE":"2021-03-14","REF_FRAME":"TEME","RCS_SIZE":"LARGE","OBJECT_TYPE":"PAYLOAD","MEAN_ANOMALY":"299.1571","PERIOD":"95.592","SEMIMAJOR_AXIS":"6925.323","REV_AT_EPOCH":"7188","RA_OF_ASC_NODE":"222.2747","INCLINATION":"53.0548","BSTAR":"0.00021203000000"},{"GP_ID":"206926423","MEAN_MOTION_DOT":"0.00000480","MEAN_ELEMENT_THEORY":"SGP4","CLASSIFICATION_TYPE":"U","NORAD_CAT_ID":"47913","DECAY_DATE":null,"ARG_OF_PERICENTER":"55.1473","SITE":"AFETR","PERIAPSIS":"546.107","TLE_LINE1":"1 47913U 21021BF  22177.87247907  .00000480  00000-0  51102-4 0  9998","ECCENTRICITY":"0.00015630","TIME_SYSTEM":"UTC","APOAPSIS":"548.272","OBJECT_NAME":"STARLINK-2374","EPOCH":"2022-06-26T20:56:22.191648","MEAN_MOTION":"15.06407945","BSTAR":"0.00005110200000","INCLINATION":"53.0551","REV_AT_EPOCH":"7230","SEMIMAJOR_AXIS":"6925.324","RA_OF_ASC_NODE":"230.6379","PERIOD":"95.592","MEAN_ANOMALY":"304.9663","RCS_SIZE":"LARGE","OBJECT_TYPE":"PAYLOAD","REF_FRAME":"TEME","LAUNCH_DATE":"2021-03-14","ELEMENT_SET_NO":"999","COUNTRY_CODE":"US","TLE_LINE2":"2 47913  53.0551 230.6379 0001563  55.1473 304.9663 15.06407945 72309","FILE":"3503441","MEAN_MOTION_DDOT":"0.0000000000000","EPHEMERIS_TYPE":"0","CENTER_NAME":"EARTH","OBJECT_ID":"2021-021BF"},{"ECCENTRICITY":"0.00017620","APOAPSIS":"548.455","TIME_SYSTEM":"UTC","OBJECT_NAME":"STARLINK-2375","EPOCH":"2022-06-26T13:25:08.266080","MEAN_MOTION":"15.06393205","GP_ID":"206926651","MEAN_MOTION_DOT":"0.00000722","SITE":"AFETR","PERIAPSIS":"546.014","ARG_OF_PERICENTER":"64.0167","TLE_LINE1":"1 47914U 21021BG  22177.55912345  .00000722  00000-0  67370-4 0  9992","NORAD_CAT_ID":"47914","DECAY_DATE":null,"CLASSIFICATION_TYPE":"U","MEAN_ELEMENT_THEORY":"SGP4","ELEMENT_SET_NO":"999","FILE":"3503441","TLE_LINE2":"2 47914  53.0552 231.5809 0001762  64.0167 296.1004 15.06393205 72257","COUNTRY_CODE":"US","LAUNCH_DATE":"2021-03-14","REF_FRAME":"TEME","OBJECT_ID":"2021-021BG","CENTER_NAME":"EARTH","EPHEMERIS_TYPE":"0","MEAN_MOTION_DDOT":"0.0000000000000","SEMIMAJOR_AXIS":"6925.369","REV_AT_EPOCH":"7225","RA_OF_ASC_NODE":"231.5809","INCLINATION":"53.0552","BSTAR":"0.00006737000000","RCS_SIZE":"LARGE","OBJECT_TYPE":"PAYLOAD","MEAN_ANOMALY":"296.1004","PERIOD":"95.593"},{"PERIOD":"95.592","MEAN_ANOMALY":"290.5807","RCS_SIZE":"LARGE","OBJECT_TYPE":"PAYLOAD","BSTAR":"0.00007512400000","INCLINATION":"53.0519","SEMIMAJOR_AXIS":"6925.346","REV_AT_EPOCH":"7188","RA_OF_ASC_NODE":"225.3937","MEAN_MOTION_DDOT":"0.0000000000000","EPHEMERIS_TYPE":"0","CENTER_NAME":"EARTH","OBJECT_ID":"2021-021BH","REF_FRAME":"TEME","LAUNCH_DATE":"2021-03-14","ELEMENT_SET_NO":"999","TLE_LINE2":"2 47915  53.0519 225.3937 0001408  69.5333 290.5807 15.06400989 71881","FILE":"3503217","COUNTRY_CODE":"US","CLASSIFICATION_TYPE":"U","MEAN_ELEMENT_THEORY":"SGP4","NORAD_CAT_ID":"47915","DECAY_DATE":null,"SITE":"AFETR","PERIAPSIS":"546.235","ARG_OF_PERICENTER":"69.5333","TLE_LINE1":"1 47915U 21021BH  22177.82312689  .00000838  00000-0  75124-4 0  9992","GP_ID":"206899106","MEAN_MOTION_DOT":"0.00000838","EPOCH":"2022-06-26T19:45:18.163296","OBJECT_NAME":"STARLINK-2376","MEAN_MOTION":"15.06400989","ECCENTRICITY":"0.00014080","APOAPSIS":"548.186","TIME_SYSTEM":"UTC"},{"ECCENTRICITY":"0.00018030","TIME_SYSTEM":"UTC","APOAPSIS":"548.480","OBJECT_NAME":"STARLINK-2378","EPOCH":"2022-06-26T19:07:29.999136","MEAN_MOTION":"15.06394084","GP_ID":"206925672","MEAN_MOTION_DOT":"0.00002106","DECAY_DATE":null,"NORAD_CAT_ID":"47916","ARG_OF_PERICENTER":"62.7344","SITE":"AFETR","PERIAPSIS":"545.983","TLE_LINE1":"1 47916U 21021BJ  22177.79687499  .00002106  00000-0  16029-3 0  9991","MEAN_ELEMENT_THEORY":"SGP4","CLASSIFICATION_TYPE":"U","ELEMENT_SET_NO":"999","TLE_LINE2":"2 47916  53.0552 210.5130 0001803  62.7344 297.3829 15.06394084 72558","COUNTRY_CODE":"US","FILE":"3503441","REF_FRAME":"TEME","LAUNCH_DATE":"2021-03-14","CENTER_NAME":"EARTH","EPHEMERIS_TYPE":"0","OBJECT_ID":"2021-021BJ","MEAN_MOTION_DDOT":"0.0000000000000","SEMIMAJOR_AXIS":"6925.367","REV_AT_EPOCH":"7255","RA_OF_ASC_NODE":"210.5130","BSTAR":"0.00016029000000","INCLINATION":"53.0552","RCS_SIZE":"LARGE","OBJECT_TYPE":"PAYLOAD","PERIOD":"95.593","MEAN_ANOMALY":"297.3829"},{"MEAN_MOTION_DOT":"0.00000128","GP_ID":"206895092","NORAD_CAT_ID":"47917","DECAY_DATE":null,"TLE_LINE1":"1 47917U 21021BK  22177.53793238  .00000128  00000-0  27532-4 0  9997","ARG_OF_PERICENTER":"58.2702","SITE":"AFETR","PERIAPSIS":"545.966","CLASSIFICATION_TYPE":"U","MEAN_ELEMENT_THEORY":"SGP4","TIME_SYSTEM":"UTC","APOAPSIS":"548.482","ECCENTRICITY":"0.00018160","MEAN_MOTION":"15.06396591","OBJECT_NAME":"STARLINK-2397","EPOCH":"2022-06-26T12:54:37.357632","RA_OF_ASC_NODE":"221.6665","SEMIMAJOR_AXIS":"6925.359","REV_AT_EPOCH":"7236","BSTAR":"0.00002753200000","INCLINATION":"53.0530","OBJECT_TYPE":"PAYLOAD","RCS_SIZE":"LARGE","PERIOD":"95.592","MEAN_ANOMALY":"301.8464","TLE_LINE2":"2 47917  53.0530 221.6665 0001816  58.2702 301.8464 15.06396591 72363","FILE":"3503181","COUNTRY_CODE":"US","ELEMENT_SET_NO":"999","REF_FRAME":"TEME","LAUNCH_DATE":"2021-03-14","CENTER_NAME":"EARTH","EPHEMERIS_TYPE":"0","OBJECT_ID":"2021-021BK","MEAN_MOTION_DDOT":"0.0000000000000"},{"MEAN_MOTION_DOT":"0.00001413","GP_ID":"206899016","TLE_LINE1":"1 47918U 21021BL  22177.81068187  .00001413  00000-0  11375-3 0  9992","SITE":"AFETR","ARG_OF_PERICENTER":"64.3672","PERIAPSIS":"546.055","NORAD_CAT_ID":"47918","DECAY_DATE":null,"MEAN_ELEMENT_THEORY":"SGP4","CLASSIFICATION_TYPE":"U","TIME_SYSTEM":"UTC","APOAPSIS":"548.355","ECCENTRICITY":"0.00016610","MEAN_MOTION":"15.06402837","EPOCH":"2022-06-26T19:27:22.913568","OBJECT_NAME":"STARLINK-2398","RA_OF_ASC_NODE":"220.4493","REV_AT_EPOCH":"7195","SEMIMAJOR_AXIS":"6925.340","INCLINATION":"53.0538","BSTAR":"0.00011375000000","OBJECT_TYPE":"PAYLOAD","RCS_SIZE":"LARGE","MEAN_ANOMALY":"295.7489","PERIOD":"95.592","COUNTRY_CODE":"US","TLE_LINE2":"2 47918  53.0538 220.4493 0001661  64.3672 295.7489 15.06402837 71953","FILE":"3503208","ELEMENT_SET_NO":"999","LAUNCH_DATE":"2021-03-14","REF_FRAME":"TEME","OBJECT_ID":"2021-021BL","CENTER_NAME":"EARTH","EPHEMERIS_TYPE":"0","MEAN_MOTION_DDOT":"0.0000000000000"},{"OBJECT_ID":"2021-021BM","EPHEMERIS_TYPE":"0","CENTER_NAME":"EARTH","MEAN_MOTION_DDOT":"0.0000000000000","FILE":"3503441","TLE_LINE2":"2 47919  53.0538 230.2062 0001771  47.5353 312.5786 15.06405689 72289","COUNTRY_CODE":"US","ELEMENT_SET_NO":"999","LAUNCH_DATE":"2021-03-14","REF_FRAME":"TEME","OBJECT_TYPE":"PAYLOAD","RCS_SIZE":"LARGE","MEAN_ANOMALY":"312.5786","PERIOD":"95.592","RA_OF_ASC_NODE":"230.2062","REV_AT_EPOCH":"7228","SEMIMAJOR_AXIS":"6925.331","INCLINATION":"53.0538","BSTAR":"0.00029029000000","MEAN_MOTION":"15.06405689","OBJECT_NAME":"STARLINK-2405","EPOCH":"2022-06-26T20:40:23.108448","TIME_SYSTEM":"UTC","APOAPSIS":"548.423","ECCENTRICITY":"0.00017710","TLE_LINE1":"1 47919U 21021BM  22177.86137857  .00004046  00000-0  29029-3 0  9999","SITE":"AFETR","ARG_OF_PERICENTER":"47.5353","PERIAPSIS":"545.970","DECAY_DATE":null,"NORAD_CAT_ID":"47919","CLASSIFICATION_TYPE":"U","MEAN_ELEMENT_THEORY":"SGP4","MEAN_MOTION_DOT":"0.00004046","GP_ID":"206925422"},{"PERIOD":"95.592","MEAN_ANOMALY":"299.4029","OBJECT_TYPE":"PAYLOAD","RCS_SIZE":"LARGE","BSTAR":"0.00015436000000","INCLINATION":"53.0562","RA_OF_ASC_NODE":"276.6680","SEMIMAJOR_AXIS":"6925.333","REV_AT_EPOCH":"7090","MEAN_MOTION_DDOT":"0.0000000000000","EPHEMERIS_TYPE":"0","CENTER_NAME":"EARTH","OBJECT_ID":"2021-024A","REF_FRAME":"TEME","LAUNCH_DATE":"2021-03-24","TLE_LINE2":"2 47977  53.0562 276.6680 0001362  60.7096 299.4029 15.06405006 70900","FILE":"3503181","COUNTRY_CODE":"US","ELEMENT_SET_NO":"999","MEAN_ELEMENT_THEORY":"SGP4","CLASSIFICATION_TYPE":"U","DECAY_DATE":null,"NORAD_CAT_ID":"47977","TLE_LINE1":"1 47977U 21024A   22177.53837782  .00002019  00000-0  15436-3 0  9999","ARG_OF_PERICENTER":"60.7096","SITE":"AFETR","PERIAPSIS":"546.255","MEAN_MOTION_DOT":"0.00002019","GP_ID":"206894596","MEAN_MOTION":"15.06405006","EPOCH":"2022-06-26T12:55:15.843648","OBJECT_NAME":"STARLINK-2087","TIME_SYSTEM":"UTC","APOAPSIS":"548.141","ECCENTRICITY":"0.00013620"}];
